NORAD_CAT_ID,OBJECT_NAME,OBJECT_TYPE,EPOCH,MEAN_MOTION,ECCENTRICITY,INCLINATION,RA_OF_ASC_NODE,ARG_OF_PERICENTER,MEAN_ANOMALY,BSTAR,MEAN_MOTION_DOT,MEAN_MOTION_DDOT,TLE_LINE0,TLE_LINE1,TLE_LINE2,SEMIMAJOR_AXIS,PERIOD,APOGEE,PERIGEE,DECAYED
52373.0,STARLINK-3550,PAYLOAD,2022-10-07 14:14:32,15.08845286,0.0001789,53.2191,36.5167,49.3218,310.793,0.00016938,2.409e-05,0.0,0 STARLINK-3550,1 52373U 22045AU  22280.59342969  .00002409  00000-0  16938-3 0  9999,2 52373  53.2191  36.5167 0001789  49.3218 310.7930 15.08845286 27350,6917.864000000001,95.437,540.967,538.492,0.0
52373.0,STARLINK-3550,PAYLOAD,2022-10-08 10:54:34,15.08830061,0.0001626,53.2209,32.6497,52.2084,307.9055,-8.6661e-05,-1.667e-05,0.0,0 STARLINK-3550,1 52373U 22045AU  22281.45456933 -.00001667  00000-0 -86661-4 0  9990,2 52373  53.2209  32.6497 0001626  52.2084 307.9055 15.08830061 27482,6917.911,95.438,540.901,538.651,0.0
52373.0,STARLINK-3550,PAYLOAD,2022-10-08 12:29:58,15.08825713,0.0001867,53.2201,32.3543,47.9721,312.1429,-4.5975e-05,-1.019e-05,0.0,0 STARLINK-3550,1 52373U 22045AU  22281.52081144 -.00001019  00000-0 -45975-4 0  9990,2 52373  53.2201  32.3543 0001867  47.9721 312.1429 15.08825713 27491,6917.924,95.438,541.081,538.497,0.0
52373.0,STARLINK-3550,PAYLOAD,2022-10-08 14:05:21,15.08826619,0.0001983,53.2195,32.0566,53.1589,306.9585,-4.7272e-05,-1.04e-05,0.0,0 STARLINK-3550,1 52373U 22045AU  22281.58705149 -.00001040  00000-0 -47272-4 0  9990,2 52373  53.2195  32.0566 0001983  53.1589 306.9585 15.08826619 27507,6917.920999999999,95.438,541.158,538.414,0.0
52373.0,STARLINK-3550,PAYLOAD,2022-10-09 12:20:43,15.08849591,0.0002009999999999,53.2196,27.8954,45.5391,314.5765,5.1783e-05,5.36e-06,0.0,0 STARLINK-3550,1 52373U 22045AU  22282.51439502  .00000536  00000-0  51783-4 0  9990,2 52373  53.2196  27.8954 0002010  45.5391 314.5765 15.08849591 27643,6917.851,95.437,541.107,538.326,0.0
52373.0,STARLINK-3550,PAYLOAD,2022-10-09 13:56:04,15.08895309,0.0002061999999999,53.22,27.5971,35.5488,324.5641,-0.00058062,-9.531e-05,0.0,0 STARLINK-3550,1 52373U 22045AU  22282.58061187 -.00009531  00000-0 -58062-3 0  9999,2 52373  53.2200  27.5971 0002062  35.5488 324.5641 15.08895309 27651,6917.7109999999975,95.434,541.003,538.15,0.0
52373.0,STARLINK-3550,PAYLOAD,2022-10-10 05:49:58,15.08842222,0.0001962,53.2198,24.6239,45.9191,314.1962,0.0002835,4.227e-05,0.0,0 STARLINK-3550,1 52373U 22045AU  22283.24303277  .00004227  00000-0  28350-3 0  9994,2 52373  53.2198  24.6239 0001962  45.9191 314.1962 15.08842222 27754,6917.874,95.437,541.096,538.381,0.0
52373.0,STARLINK-3550,PAYLOAD,2022-10-10 13:46:54,15.08833027,0.0001950999999999,53.2206,23.1362,44.691,315.4239,0.00015166,2.126e-05,0.0,0 STARLINK-3550,1 52373U 22045AU  22283.57424292  .00002126  00000-0  15166-3 0  9998,2 52373  53.2206  23.1362 0001951  44.6910 315.4239 15.08833027 27808,6917.901999999999,95.438,541.116,538.4169999999998,0.0
52373.0,STARLINK-3550,PAYLOAD,2022-10-11 10:26:55,15.08837927,0.000187,53.2204,19.2714,41.3959,318.7174,-4.5615e-05,-1.014e-05,0.0,0 STARLINK-3550,1 52373U 22045AU  22284.43536610 -.00001014  00000-0 -45615-4 0  9992,2 52373  53.2204  19.2714 0001870  41.3959 318.7174 15.08837927 27931,6917.887,95.438,541.045,538.4580000000002,0.0
52373.0,STARLINK-3550,PAYLOAD,2022-10-11 15:13:05,15.08833378,0.0001878,53.2196,18.378,45.4856,314.6289,-8.5109e-05,-1.642e-05,0.0,0 STARLINK-3550,1 52373U 22045AU  22284.63409041 -.00001642  00000-0 -85109-4 0  9990,2 52373  53.2196  18.3780 0001878  45.4856 314.6289 15.08833378 27964,6917.901,95.438,541.065,538.466,0.0
52373.0,STARLINK-3550,PAYLOAD,2022-10-12 11:53:05,15.08837676,0.0002014,53.2192,14.5123,37.4629,322.6503,9.7763e-05,1.268e-05,0.0,0 STARLINK-3550,1 52373U 22045AU  22285.49520398  .00001268  00000-0  97763-4 0  9995,2 52373  53.2192  14.5123 0002014  37.4629 322.6503 15.08837676 28099,6917.887,95.438,541.146,538.359,0.0
52373.0,STARLINK-3550,PAYLOAD,2022-10-12 16:39:15,15.08830604,0.0002064,53.22,13.6211,41.9037,318.2113,3.785e-05,3.14e-06,0.0,0 STARLINK-3550,1 52373U 22045AU  22285.69393153  .00000314  00000-0  37850-4 0  9996,2 52373  53.2200  13.6211 0002064  41.9037 318.2113 15.08830604 28121,6917.909000000002,95.438,541.202,538.346,0.0
52373.0,STARLINK-3550,PAYLOAD,2022-10-13 10:08:29,15.08838327,0.000221,53.2205,10.3514,40.4779,319.6377,0.00018302,2.626e-05,0.0,0 STARLINK-3550,1 52373U 22045AU  22286.42256589  .00002626  00000-0  18302-3 0  9997,2 52373  53.2205  10.3514 0002210  40.4779 319.6377 15.08838327 28235,6917.886,95.438,541.279,538.222,0.0
52373.0,STARLINK-3550,PAYLOAD,2022-10-13 14:54:38,15.08841635,0.0002215,53.2205,9.4594,40.9063,319.2095,0.00019543,2.824e-05,0.0,0 STARLINK-3550,1 52373U 22045AU  22286.62128426  .00002824  00000-0  19543-3 0  9995,2 52373  53.2205   9.4594 0002215  40.9063 319.2095 15.08841635 28260,6917.875,95.437,541.273,538.2080000000002,0.0
52373.0,STARLINK-3550,PAYLOAD,2022-10-14 11:34:39,15.08845895,0.0002166999999999,53.2195,5.5945,29.2631,330.8482,0.00014183,1.97e-05,0.0,0 STARLINK-3550,1 52373U 22045AU  22287.48240223  .00001970  00000-0  14183-3 0  9996,2 52373  53.2195   5.5945 0002167  29.2631 330.8482 15.08845895 28397,6917.861999999999,95.437,541.226,538.2280000000002,0.0
52373.0,STARLINK-3550,PAYLOAD,2022-10-14 14:45:26,15.08842654,0.0002029999999999,53.2214,5.0001,52.9626,307.1552,0.0001137,1.522e-05,0.0,0 STARLINK-3550,1 52373U 22045AU  22287.61488483  .00001522  00000-0  11370-3 0  9991,2 52373  53.2214   5.0001 0002030  52.9626 307.1552 15.08842654 28411,6917.871999999999,95.437,541.1419999999998,538.3330000000002,0.0
52373.0,STARLINK-3550,PAYLOAD,2022-10-15 11:25:26,15.08853151,0.0002214,53.2205,1.1344,43.0288,317.0877,6.9057e-05,8.11e-06,0.0,0 STARLINK-3550,1 52373U 22045AU  22288.47599576  .00000811  00000-0  69057-4 0  9998,2 52373  53.2205   1.1344 0002214  43.0288 317.0877 15.08853151 28545,6917.84,95.437,541.237,538.174,0.0
52373.0,STARLINK-3550,PAYLOAD,2022-10-15 14:36:12,15.08844262,0.0002198999999999,53.2188,0.5396,37.0297,323.0846,-8.034600000000001e-06,-4.16e-06,0.0,0 STARLINK-3550,1 52373U 22045AU  22288.60848274 -.00000416  00000-0 -80346-5 0  9993,2 52373  53.2188   0.5396 0002199  37.0297 323.0846 15.08844262 28568,6917.8669999999975,95.437,541.254,538.211,0.0
52373.0,STARLINK-3550,PAYLOAD,2022-10-16 11:16:13,15.08836467,0.0002114,53.2213,356.6748,46.1019,314.0148,-1.0267e-06,-3.05e-06,0.0,0 STARLINK-3550,1 52373U 22045AU  22289.46960608 -.00000305  00000-0 -10267-5 0  9996,2 52373  53.2213 356.6748 0002114  46.1019 314.0148 15.08836467 28690,6917.891,95.438,541.219,538.294,0.0
52373.0,STARLINK-3550,PAYLOAD,2022-10-17 12:42:24,15.08834877,0.000207,53.2208,351.9166,42.8719,317.2434,-6.5844e-05,-1.336e-05,0.0,0 STARLINK-3550,1 52373U 22045AU  22290.52945025 -.00001336  00000-0 -65844-4 0  9996,2 52373  53.2208 351.9166 0002070  42.8719 317.2434 15.08834877 28851,6917.896,95.438,541.193,538.3290000000002,0.0
52373.0,STARLINK-3550,PAYLOAD,2022-10-17 14:17:47,15.08835581,0.0002116,53.2196,351.6187,43.718,316.398,-4.6978e-05,-1.036e-05,0.0,0 STARLINK-3550,1 52373U 22045AU  22290.59568924 -.00001036  00000-0 -46978-4 0  9996,2 52373  53.2196 351.6187 0002116  43.7180 316.3980 15.08835581 28860,6917.894,95.438,541.2230000000002,538.295,0.0
52373.0,STARLINK-3550,PAYLOAD,2022-10-18 10:57:49,15.08820627,0.0001896,53.2195,347.75300000000016,40.3462,319.767,-2.0347e-05,-6.12e-06,0.0,0 STARLINK-3550,1 52373U 22045AU  22291.45682198 -.00000612  00000-0 -20347-4 0  9993,2 52373  53.2195 347.7530 0001896  40.3462 319.7670 15.08820627 28999,6917.94,95.439,541.116,538.493,0.0
52373.0,STARLINK-3550,PAYLOAD,2022-10-18 20:30:08,15.08820013,0.000193,53.2197,345.9689,40.075,320.0384,-4.1156e-05,-9.43e-06,0.0,0 STARLINK-3550,1 52373U 22045AU  22291.85426774 -.00000943  00000-0 -41156-4 0  9991,2 52373  53.2197 345.9689 0001930  40.0750 320.0384 15.08820013 29056,6917.941,95.439,541.1419999999998,538.471,0.0
52373.0,STARLINK-3550,PAYLOAD,2022-10-19 12:23:59,15.08834559,0.0002041,53.2191,342.9948,36.8279,323.2853,9.2366e-05,1.182e-05,0.0,0 STARLINK-3550,1 52373U 22045AU  22292.51666034  .00001182  00000-0  92366-4 0  9993,2 52373  53.2191 342.9948 0002041  36.8279 323.2853 15.08834559 29155,6917.897,95.438,541.174,538.35,0.0
52373.0,STARLINK-3550,PAYLOAD,2022-10-19 13:59:22,15.08835233,0.0002046999999999,53.2191,342.6974,36.8972,323.216,9.7992e-05,1.272e-05,0.0,0 STARLINK-3550,1 52373U 22045AU  22292.58290021  .00001272  00000-0  97992-4 0  9999,2 52373  53.2191 342.6974 0002047  36.8972 323.2160 15.08835233 29169,6917.895,95.438,541.1759999999998,538.344,0.0
52373.0,STARLINK-3550,PAYLOAD,2022-10-20 12:14:46,15.08845318,0.0002088,53.2189,338.5337,36.1806,323.9327,1.8566e-05,7e-08,0.0,0 STARLINK-3550,1 52373U 22045AU  22293.51025892  .00000007  00000-0  18566-4 0  9990,2 52373  53.2189 338.5337 0002088  36.1806 323.9327 15.08845318 29300,6917.864000000001,95.437,541.174,538.285,0.0
52373.0,STARLINK-3550,PAYLOAD,2022-10-20 20:11:42,15.08839336,0.0002053,53.2188,337.0468,35.7055,324.4074,0.00022006,3.216e-05,0.0,0 STARLINK-3550,1 52373U 22045AU  22293.84145971  .00003216  00000-0  22006-3 0  9995,2 52373  53.2188 337.0468 0002053  35.7055 324.4074 15.08839336 29354,6917.882,95.438,541.168,538.327,0.0
52373.0,STARLINK-3550,PAYLOAD,2022-10-21 02:33:15,15.08829379,0.0002004,53.219,335.8577,39.5441,320.5698,0.00025844,3.826e-05,0.0,0 STARLINK-3550,1 52373U 22045AU  22294.10642655  .00003826  00000-0  25844-3 0  9996,2 52373  53.2190 335.8577 0002004  39.5441 320.5698 15.08829379 29390,6917.913000000001,95.438,541.164,538.3919999999998,0.0
52373.0,STARLINK-3550,PAYLOAD,2022-10-21 10:30:10,15.08840921,0.0002118,53.219,334.3709,38.9113,321.2032,6.2451e-05,7.06e-06,0.0,0 STARLINK-3550,1 52373U 22045AU  22294.43762418  .00000706  00000-0  62451-4 0  9992,2 52373  53.2190 334.3709 0002118  38.9113 321.2032 15.08840921 29448,6917.878000000002,95.437,541.2080000000002,538.2769999999998,0.0
